TRANSPORTER-16 OBJECT BV
1 68483U 26067BV  26103.85014301  .00001056  00000+0  10889-3 0  9994
2 68483  97.7598  63.1378 0004401 123.5501 236.6139 14.92283725  2139
