{
  "norad_id": 68483,
  "name": "TRANSPORTER-16 OBJECT BV",
  "history": [
    {
      "epoch": "2026-04-13T20:24:12.356064Z",
      "apogee_km": 593.8836365160741,
      "perigee_km": 587.7495635573205,
      "latitude_deg": 2.254361487010018e-05,
      "longitude_deg": -84.94869461235666,
      "height_km": 595.548008678929,
      "semi_major_axis_km": 6968.953600036697,
      "eccentricity": 0.0004401,
      "inclination_deg": 97.7598,
      "raan_deg": 63.1378,
      "arg_perigee_deg": 123.5501,
      "mean_anomaly_deg": 236.6139,
      "mean_motion_rev_day": 14.92283725
    }
  ]
}